1 43056U 17079B   20092.57519272  .00000029  00000-0  00000-0 0  9994
2 43056  56.3305 283.9031 0002166 290.5808  69.4042  1.70474173 14346
1 43056U 17079B   20094.33495253  .00000028  00000-0  00000+0 0  9990
2 43056  56.3291 283.8548 0002157 289.6220  70.3640  1.70474131 14348
1 43056U 17079B   20094.33495270  .00000028  00000-0  00000-0 0  9990
2 43056  56.3292 283.8548 0002157 289.3853  70.6006  1.70474114 14371
1 43056U 17079B   20099.02759377 -.00000005  00000-0  00000+0 0  9997
2 43056  56.3256 283.7258 0002155 287.0149  72.9428  1.70474108 14421
1 43056U 17079B   20099.61417312 -.00000008  00000-0  00000-0 0  9996
2 43056  56.3250 283.7097 0002162 287.3736  72.5803  1.70474119 14468
1 43056U 17079B   20101.37391751 -.00000013  00000-0  00000+0 0  9996
2 43056  56.3235 283.6613 0002156 285.9789  73.9679  1.70474201 14467
1 43056U 17079B   20101.96050317 -.00000013  00000-0  00000-0 0  9992
2 43056  56.3231 283.6452 0002156 285.9216  74.0247  1.70474191 14505
1 43056U 17079B   20104.30685334 -.00000009  00000-0  00000+0 0  9990
2 43056  56.3213 283.5808 0002160 284.4143  75.5362  1.70474256 14514
1 43056U 17079B   20106.65320507 -.00000011  00000-0  00000+0 0  9991
2 43056  56.3195 283.5165 0002172 282.8339  77.1218  1.70474315 14559
1 43056U 17079B   20106.65320507 -.00000011  00000-0  00000-0 0  9992
2 43056  56.3195 283.5165 0002172 282.8339  77.1218  1.70474315 14582
1 43056U 17079B   20107.23979030 -.00000012  00000-0  00000-0 0  9999
2 43056  56.3189 283.5004 0002176 282.5027  77.4533  1.70474340 14594
1 43056U 17079B   20108.99954205 -.00000017  00000-0  00000+0 0  9994
2 43056  56.3175 283.4522 0002179 281.3406  78.6130  1.70474405 14592
1 43056U 17079B   20109.58612477 -.00000018  00000-0  00000-0 0  9994
2 43056  56.3171 283.4361 0002178 281.0321  78.9197  1.70474404 14631
1 43056U 17079B   20113.69219753 -.00000017  00000-0  00000-0 0  9990
2 43056  56.3147 283.3238 0002197 276.4755  83.4607  1.70474427 14706
1 43056U 17079B   20113.69219765 -.00000017  00000-0  00000+0 0  9992
2 43056  56.3147 283.3238 0002196 276.8031  83.1332  1.70474419 14675
1 43056U 17079B   20113.69219765 -.00000017  00000-0  00000-0 0  9993
2 43056  56.3147 283.3238 0002196 276.8031  83.1332  1.70474419 14709
1 43056U 17079B   20114.27878072 -.00000016  00000-0  00000-0 0  9999
2 43056  56.3142 283.3078 0002204 276.2832  83.6518  1.70474420 14713
1 43056U 17079B   20114.86536452 -.00000014  00000-0  00000+0 0  9994
2 43056  56.3138 283.2918 0002209 275.9702  83.9640  1.70474424 14697
1 43056U 17079B   20116.03853504 -.00000010  00000-0  00000+0 0  9991
2 43056  56.3129 283.2597 0002224 274.8924  85.0420  1.70474419 14717
1 43056U 17079B   20119.55806376  .00000003  00000-0  00000+0 0  9997
2 43056  56.3099 283.1633 0002250 273.1721  86.7733  1.70474374 14770
1 43056U 17079B   20120.14465207  .00000003  00000-0  00000-0 0  9999
2 43056  56.3094 283.1473 0002259 272.7915  87.1559  1.70474363 14810
1 43056U 17079B   20120.14465312  .00000003  00000-0  00000-0 0  9996
2 43056  56.3094 283.1473 0002260 272.7235  87.2239  1.70474332 14819
1 43056U 17079B   20121.31782667  .00000003  00000-0  00000+0 0  9990
2 43056  56.3084 283.1151 0002277 272.1295  87.8200  1.70474328 14807
1 43056U 17079B   20121.31782667  .00000003  00000-0  00000-0 0  9991
2 43056  56.3084 283.1151 0002277 272.1295  87.8200  1.70474328 14830
1 43056U 17079B   20121.90441204  .00000001  00000-0  00000-0 0  9993
2 43056  56.3080 283.0991 0002282 272.0306  87.9189  1.70474328 14843
1 43056U 17079B   20122.49099573 -.00000002  00000-0  00000+0 0  9997
2 43056  56.3076 283.0830 0002294 271.7434  88.2052  1.70474322 14826
1 43056U 17079B   20123.66415930 -.00000010  00000-0  00000-0 0  9996
2 43056  56.3066 283.0509 0002328 270.9171  89.0270  1.70474289 14840
1 43056U 17079B   20124.25073974 -.00000014  00000-0  00000-0 0  9994
2 43056  56.3061 283.0348 0002333 270.8447  89.0963  1.70474286 14887
1 43056U 17079B   20124.83731787 -.00000019  00000-0  00000+0 0  9995
2 43056  56.3056 283.0188 0002359 270.2866  89.6504  1.70474295 14865
1 43056U 17079B   20125.42389726 -.00000024  00000-0  00000-0 0  9990
2 43056  56.3052 283.0027 0002371 270.0710  89.8622  1.70474282 14907
1 43056U 17079B   20126.59705578 -.00000032  00000-0  00000-0 0  9995
2 43056  56.3043 282.9705 0002384 269.6905  90.2356  1.70474302 14927
1 43056U 17079B   20126.59705609 -.00000032  00000-0  00000+0 0  9999
2 43056  56.3043 282.9705 0002382 269.8451  90.0811  1.70474299 14898
1 43056U 17079B   20133.04950644 -.00000035  00000-0  00000+0 0  9991
2 43056  56.2991 282.7939 0002536 266.4220  93.5121  1.70474441 15009
1 43056U 17079B   20133.63609437 -.00000036  00000-0  00000-0 0  9999
2 43056  56.2986 282.7778 0002543 266.2289  93.7072  1.70474455 15041
1 43056U 17079B   20135.98243485 -.00000042  00000-0  00000+0 0  9992
2 43056  56.2966 282.7136 0002591 265.1130  94.8256  1.70474598 15058
1 43056U 17079B   20136.56901837 -.00000043  00000-0  00000-0 0  9991
2 43056  56.2961 282.6975 0002607 264.6351  95.3028  1.70474619 15091
1 43056U 17079B   20136.56901853 -.00000043  00000-0  00000-0 0  9999
2 43056  56.2961 282.6975 0002599 264.8838  95.0542  1.70474603 15094
1 43056U 17079B   20141.26168121 -.00000040  00000-0  00000+0 0  9991
2 43056  56.2923 282.5693 0002728 262.0535  97.8750  1.70474619 15140
1 43056U 17079B   20143.02143741 -.00000034  00000-0  00000+0 0  9991
2 43056  56.2909 282.5213 0002782 261.3480  98.5822  1.70474610 15175
1 43056U 17079B   20143.02143765 -.00000034  00000-0  00000-0 0  9998
2 43056  56.2909 282.5213 0002788 261.1982  98.7319  1.70474604 15206
1 43056U 17079B   20148.30073724 -.00000016  00000-0  00000-0 0  9991
2 43056  56.2865 282.3769 0002931 259.6096 100.3447  1.70474537 15262
1 43056U 17079B   20149.47390999 -.00000018  00000-0  00000-0 0  9998
2 43056  56.2855 282.3449 0002995 259.2455 100.7105  1.70474474 15312
1 43056U 17079B   20149.47391016 -.00000018  00000-0  00000-0 0  9999
2 43056  56.2855 282.3448 0002973 259.3487 100.6075  1.70474493 15285
1 43056U 17079B   20149.47391016 -.00000018  00000-0  00000-0 0  9999
2 43056  56.2855 282.3448 0002973 259.3487 100.6075  1.70474493 15319
1 43056U 17079B   20150.64707642 -.00000024  00000-0  00000-0 0  9993
2 43056  56.2845 282.3127 0003028 259.0258 100.9286  1.70474472 15300
1 43056U 17079B   20151.82024209 -.00000033  00000-0  00000+0 0  9994
2 43056  56.2834 282.2806 0003072 258.8865 101.0634  1.70474352 15329
1 43056U 17079B   20152.40681856 -.00000037  00000-0  00000-0 0  9991
2 43056  56.2830 282.2645 0003079 258.8611 101.0861  1.70474465 15363
1 43056U 17079B   20153.57997741 -.00000045  00000-0  00000+0 0  9991
2 43056  56.2820 282.2324 0003119 258.7217 101.2198  1.70474494 15358
1 43056U 17079B   20157.68607099 -.00000049  00000-0  00000-0 0  9996
2 43056  56.2786 282.1199 0003271 257.8109 102.1318  1.70474564 15427
1 43056U 17079B   20159.44584071 -.00000045  00000-0  00000-0 0  9992
2 43056  56.2766 282.0717 0003330 257.4699 102.4828  1.70474593 15450
1 43056U 17079B   20160.03242875 -.00000045  00000-0  00000-0 0  9992
2 43056  56.2757 282.0557 0003376 257.2212 102.7344  1.70474658 15493
1 43056U 17079B   20163.55195500 -.00000051  00000-0  00000+0 0  9990
2 43056  56.2726 281.9592 0003507 256.4450 103.5202  1.70474578 15524
1 43056U 17079B   20163.55195500 -.00000051  00000-0  00000-0 0  9991
2 43056  56.2726 281.9592 0003507 256.4450 103.5202  1.70474578 15557
1 43056U 17079B   20166.48486709 -.00000051  00000-0  00000+0 0  9999
2 43056  56.2702 281.8791 0003601 255.7082 104.2539  1.70474724 15575
1 43056U 17079B   20166.48486730 -.00000051  00000-0  00000-0 0  9994
2 43056  56.2698 281.8791 0003591 255.8220 104.1402  1.70474720 15600
1 43056U 17079B   20168.24461764 -.00000046  00000-0  00000+0 0  9993
2 43056  56.2688 281.8310 0003630 255.5970 104.3642  1.70474752 15602
1 43056U 17079B   20169.41778770 -.00000041  00000-0  00000+0 0  9996
2 43056  56.2678 281.7989 0003672 255.4009 104.5617  1.70474755 15629
1 43056U 17079B   20170.00437429 -.00000038  00000-0  00000-0 0  9993
2 43056  56.2677 281.7828 0003664 255.5044 104.4600  1.70474755 15666
1 43056U 17079B   20170.59096166 -.00000035  00000-0  00000+0 0  9992
2 43056  56.2669 281.7666 0003668 255.3945 104.5721  1.70474741 15647
1 43056U 17079B   20172.35072805 -.00000025  00000-0  00000+0 0  9991
2 43056  56.2643 281.7184 0003689 255.3149 104.6613  1.70474737 15672
1 43056U 17079B   20173.52391002 -.00000019  00000-0  00000+0 0  9997
2 43056  56.2641 281.6863 0003724 255.3723 104.6114  1.70474690 15697
1 43056U 17079B   20173.52391002 -.00000019  00000-0  00000-0 0  9998
2 43056  56.2641 281.6863 0003724 255.3723 104.6114  1.70474690 15721
1 43056U 17079B   20174.69709052 -.00000014  00000-0  00000+0 0  9999
2 43056  56.2631 281.6542 0003750 255.3483 104.6426  1.70474652 15719
1 43056U 17079B   20175.28367977 -.00000013  00000-0  00000-0 0  9991
2 43056  56.2640 281.6383 0003852 255.2349 104.7580  1.70474608 15752
1 43056U 17079B   20178.21660411 -.00000020  00000-0  00000+0 0  9993
2 43056  56.2614 281.5579 0003967 255.2360 104.7595  1.70474565 15779
1 43056U 17079B   20179.38976597 -.00000027  00000-0  00000+0 0  9994
2 43056  56.2605 281.5258 0004004 255.3664 104.6249  1.70474545 15799
1 43056U 17079B   20181.14950638 -.00000037  00000-0  00000+0 0  9990
2 43056  56.2592 281.4774 0004043 255.4887 104.4953  1.70474543 15829
1 43056U 17079B   20182.32267097 -.00000041  00000-0  00000+0 0  9996
2 43056  56.2581 281.4453 0004114 255.5219 104.4590  1.70474520 15844
1 43056U 17079B   20182.90925523 -.00000041  00000-0  00000-0 0  9996
2 43056  56.2577 281.4293 0004133 255.5517 104.4291  1.70474522 15887
1 43056U 17079B   20185.25560505 -.00000036  00000-0  00000+0 0  9995
2 43056  56.2558 281.3650 0004218 255.5262 104.4624  1.70474558 15893
